IRIDIUM 106             
1 41917U 17003A   25025.87836003  .00000444  00000+0  15159-3 0  9997
2 41917  86.3980 300.5222 0002424  89.1652 270.9822 14.34216845420492
IRIDIUM 103             
1 41918U 17003B   25025.79590337  .00000412  00000+0  14002-3 0  9997
2 41918  86.3982 300.4580 0001683  99.7000 260.4386 14.34217540420505
IRIDIUM 109             
1 41919U 17003C   25025.80224835  .00000014  00000+0 -20148-5 0  9996
2 41919  86.3980 300.5063 0001759  81.3718 278.7677 14.34217368420477
IRIDIUM 102             
1 41920U 17003D   25025.84030431  .00000094  00000+0  26577-4 0  9997
2 41920  86.3980 300.4246 0002213  84.1158 276.0290 14.34215771420564
IRIDIUM 105             
1 41921U 17003E   25025.74127103  .00000077  00000+0  20611-4 0  9994
2 41921  86.3949 268.8844 0001963  88.6388 271.5033 14.34215355422404
IRIDIUM 104             
1 41922U 17003F   25025.85298807  .00000053  00000+0  12013-4 0  9998
2 41922  86.3981 300.4542 0001565  81.1939 278.9434 14.34217553420559
IRIDIUM 114             
1 41923U 17003G   25025.85932019  .00000165  00000+0  51731-4 0  9993
2 41923  86.3981 300.4368 0001947  90.8275 269.3144 14.34214738420532
IRIDIUM 108             
1 41924U 17003H   25025.74808346  .00000122  00000+0  36394-4 0  9998
2 41924  86.3943 268.7925 0002211  88.2120 271.9329 14.34215417422374
